[{"OBJECT_NAME":"STARLINK-3177","OBJECT_ID":"2022-005AL","EPOCH":"2026-03-09T20:33:10.454400","MEAN_MOTION":15.08837828,"ECCENTRICITY":0.00015457,"INCLINATION":53.216,"RA_OF_ASC_NODE":298.3695,"ARG_OF_PERICENTER":100.4572,"MEAN_ANOMALY":259.6594,"EPHEMERIS_TYPE":0,"CLASSIFICATION_TYPE":"U","NORAD_CAT_ID":51138,"ELEMENT_SET_NO":999,"REV_AT_EPOCH":22875,"BSTAR":-6.1253365e-5,"MEAN_MOTION_DOT":-1.263e-5,"MEAN_MOTION_DDOT":0},{"OBJECT_NAME":"STARLING 3","OBJECT_ID":"2023-100D","EPOCH":"2026-03-09T22:41:57.048288","MEAN_MOTION":15.11145977,"ECCENTRICITY":0.00066311,"INCLINATION":99.5096,"RA_OF_ASC_NODE":65.6477,"ARG_OF_PERICENTER":76.1122,"MEAN_ANOMALY":284.0839,"EPHEMERIS_TYPE":0,"CLASSIFICATION_TYPE":"U","NORAD_CAT_ID":57389,"ELEMENT_SET_NO":999,"REV_AT_EPOCH":14507,"BSTAR":0.00051487914,"MEAN_MOTION_DOT":8.551e-5,"MEAN_MOTION_DDOT":0}]
